NORAD_CAT_ID,OBJECT_NAME,OBJECT_TYPE,EPOCH,MEAN_MOTION,ECCENTRICITY,INCLINATION,RA_OF_ASC_NODE,ARG_OF_PERICENTER,MEAN_ANOMALY,BSTAR,MEAN_MOTION_DOT,MEAN_MOTION_DDOT,TLE_LINE0,TLE_LINE1,TLE_LINE2,SEMIMAJOR_AXIS,PERIOD,APOGEE,PERIGEE,DECAYED
52656.0,STARLINK-4004,PAYLOAD,2023-06-14 18:58:57,15.08844098,0.000102,53.2169,318.3502,89.7521,270.3588,8.8816e-05,1.126e-05,0.0,0 STARLINK-4004,1 52656U 22053A   23165.79094318  .00001126  00000-0  88816-4 0  9999,2 52656  53.2169 318.3502 0001020  89.7521 270.3588 15.08844098 60319,6917.868,95.437,540.438,539.027,0.0
52656.0,STARLINK-4004,PAYLOAD,2023-06-15 10:52:49,15.08833589,9.94e-05,53.2172,315.3769,88.8752,271.2354,1.1349e-05,-1.07e-06,0.0,0 STARLINK-4004,1 52656U 22053A   23166.45335348 -.00000107  00000-0  11349-4 0  9990,2 52656  53.2172 315.3769 0000994  88.8752 271.2354 15.08833589 60415,6917.9,95.438,540.453,539.077,0.0
52656.0,STARLINK-4004,PAYLOAD,2023-06-15 17:14:21,15.0884157,0.000138,53.2171,314.1874,103.0083,257.1063,6.0393e-05,6.73e-06,0.0,0 STARLINK-4004,1 52656U 22053A   23166.71830755  .00000673  00000-0  60393-4 0  9991,2 52656  53.2171 314.1874 0001380 103.0083 257.1063 15.08841570 60458,6917.876,95.437,540.695,538.786,0.0
52656.0,STARLINK-4004,PAYLOAD,2023-06-16 12:18:58,15.08846928,0.0001069,53.2171,310.6185,92.9292,267.1822,0.00013113,1.8e-05,0.0,0 STARLINK-4004,1 52656U 22053A   23167.51318159  .00001800  00000-0  13113-3 0  9999,2 52656  53.2171 310.6185 0001069  92.9292 267.1822 15.08846928 60575,6917.859,95.437,540.464,538.985,0.0
52656.0,STARLINK-4004,PAYLOAD,2023-06-16 13:54:21,15.08849223,0.000103,53.2171,310.3212,93.7272,266.3838,0.00015887,2.242e-05,0.0,0 STARLINK-4004,1 52656U 22053A   23167.57941919  .00002242  00000-0  15887-3 0  9992,2 52656  53.2171 310.3212 0001030  93.7272 266.3838 15.08849223 60588,6917.852,95.437,540.43,539.005,0.0
52656.0,STARLINK-4004,PAYLOAD,2023-06-16 17:05:07,15.08851658,0.0001093,53.2171,309.7264,96.5519,263.5598,0.00023446,3.447e-05,0.0,0 STARLINK-4004,1 52656U 22053A   23167.71189544  .00003447  00000-0  23446-3 0  9994,2 52656  53.2171 309.7264 0001093  96.5519 263.5598 15.08851658 60601,6917.845,95.437,540.466,538.954,0.0
52656.0,STARLINK-4004,PAYLOAD,2023-06-17 10:34:23,15.08834875,0.0001358,53.217,306.4551,77.5648,282.5496,6.2755e-05,7.11e-06,0.0,0 STARLINK-4004,1 52656U 22053A   23168.44055194  .00000711  00000-0  62755-4 0  9996,2 52656  53.2170 306.4551 0001358  77.5648 282.5496 15.08834875 60711,6917.896,95.438,540.701,538.822,0.0
52656.0,STARLINK-4004,PAYLOAD,2023-06-17 15:20:33,15.08831583,0.0001879,53.2169,305.5635,77.7465,282.3738,3.2774e-05,2.33e-06,0.0,0 STARLINK-4004,1 52656U 22053A   23168.63927831  .00000233  00000-0  32774-4 0  9990,2 52656  53.2169 305.5635 0001879  77.7465 282.3738 15.08831583 60742,6917.906,95.438,541.071,538.471,0.0
52656.0,STARLINK-4004,PAYLOAD,2023-06-17 16:55:57,15.088269,0.0001028,53.2169,305.266,79.6175,280.4933,-5.5366e-05,-1.168e-05,0.0,0 STARLINK-4004,1 52656U 22053A   23168.70552340 -.00001168  00000-0 -55366-4 0  9999,2 52656  53.2169 305.2660 0001028  79.6175 280.4933 15.08826900 60756,6917.92,95.438,540.497,539.074,0.0
52656.0,STARLINK-4004,PAYLOAD,2023-06-18 08:49:47,15.08839645,0.0001037,53.2165,302.2921,72.8726,287.2379,8.8074e-05,1.114e-05,0.0,0 STARLINK-4004,1 52656U 22053A   23169.36791422  .00001114  00000-0  88074-4 0  9999,2 52656  53.2165 302.2921 0001037  72.8726 287.2379 15.08839645 60856,6917.881,95.438,540.464,539.029,0.0
52656.0,STARLINK-4004,PAYLOAD,2023-06-18 18:22:06,15.08850581,0.0001058,53.2162,300.5074,69.413,290.6976,0.00041328,6.297e-05,0.0,0 STARLINK-4004,1 52656U 22053A   23169.76535155  .00006297  00000-0  41328-3 0  9999,2 52656  53.2162 300.5074 0001058  69.4130 290.6976 15.08850581 60917,6917.848,95.437,540.445,538.981,0.0
52656.0,STARLINK-4004,PAYLOAD,2023-06-19 02:19:02,15.08844156,0.0001043,53.2156,299.0198,81.3246,278.7864,0.00032661,4.915e-05,0.0,0 STARLINK-4004,1 52656U 22053A   23170.09655467  .00004915  00000-0  32661-3 0  9991,2 52656  53.2156 299.0198 0001043  81.3246 278.7864 15.08844156 60963,6917.868,95.437,540.454,539.011,0.0
52656.0,STARLINK-4004,PAYLOAD,2023-06-19 11:51:21,15.08843013,0.0001349,53.2152,297.2366,73.8356,286.2784,0.00031844,4.784e-05,0.0,0 STARLINK-4004,1 52656U 22053A   23170.49399640  .00004784  00000-0  31844-3 0  9999,2 52656  53.2152 297.2366 0001349  73.8356 286.2784 15.08843013 61027,6917.871,95.437,540.669,538.803,0.0
52656.0,STARLINK-4004,PAYLOAD,2023-06-19 15:02:07,15.08844197,9.66e-05,53.2162,296.6426,68.6447,291.4648,0.00040538,6.17e-05,0.0,0 STARLINK-4004,1 52656U 22053A   23170.62647545  .00006170  00000-0  40538-3 0  9995,2 52656  53.2162 296.6426 0000966  68.6447 291.4648 15.08844197 61048,6917.868,95.437,540.401,539.064,0.0
52656.0,STARLINK-4004,PAYLOAD,2023-06-20 14:52:54,15.08847398,9.46e-05,53.2179,292.1791,71.2873,288.8222,1.5534e-05,-4e-07,0.0,0 STARLINK-4004,1 52656U 22053A   23171.62007082 -.00000040  00000-0  15534-4 0  9992,2 52656  53.2179 292.1791 0000946  71.2873 288.8222 15.08847398 61193,6917.858,95.437,540.377,539.068,0.0
52656.0,STARLINK-4004,PAYLOAD,2023-06-21 11:32:55,15.0883932,8.89e-05,53.2156,288.3173,72.8679,287.2411,5.0116e-05,5.1e-06,0.0,0 STARLINK-4004,1 52656U 22053A   23172.48119527  .00000510  00000-0  50116-4 0  9991,2 52656  53.2156 288.3173 0000889  72.8679 287.2411 15.08839320 61320,6917.882,95.438,540.362,539.132,0.0
52656.0,STARLINK-4004,PAYLOAD,2023-06-21 13:08:18,15.08840802,9.21e-05,53.2153,288.0201,75.1013,285.0081,6.448e-05,7.39e-06,0.0,0 STARLINK-4004,1 52656U 22053A   23172.54743448  .00000739  00000-0  64480-4 0  9995,2 52656  53.2153 288.0201 0000921  75.1013 285.0081 15.08840802 61338,6917.878,95.438,540.38,539.106,0.0
52656.0,STARLINK-4004,PAYLOAD,2023-06-21 14:43:41,15.08842026,8.97e-05,53.2156,287.7222,75.027,285.0822,8.4362e-05,1.055e-05,0.0,0 STARLINK-4004,1 52656U 22053A   23172.61367367  .00001055  00000-0  84362-4 0  9998,2 52656  53.2156 287.7222 0000897  75.0270 285.0822 15.08842026 61340,6917.874,95.437,540.36,539.119,0.0
52656.0,STARLINK-4004,PAYLOAD,2023-06-22 03:26:47,15.08822577,8.65e-05,53.2161,285.3441,85.6384,274.4707,0.00044553,6.807e-05,0.0,0 STARLINK-4004,1 52656U 22053A   23173.14360092  .00006807  00000-0  44553-3 0  9992,2 52656  53.2161 285.3441 0000865  85.6384 274.4707 15.08822577 61423,6917.934,95.439,540.397,539.2,0.0
52656.0,STARLINK-4004,PAYLOAD,2023-06-22 14:34:28,15.08844033,7.78e-05,53.216,283.2625,83.4414,276.6667,0.00020227,2.933e-05,0.0,0 STARLINK-4004,1 52656U 22053A   23173.60727369  .00002933  00000-0  20227-3 0  9995,2 52656  53.2160 283.2625 0000778  83.4414 276.6667 15.08844033 61493,6917.868,95.437,540.271,539.195,0.0
52656.0,STARLINK-4004,PAYLOAD,2023-06-23 03:17:33,15.08838759,9.41e-05,53.2157,280.8831,92.982,267.128,2.9018e-05,1.74e-06,0.0,0 STARLINK-4004,1 52656U 22053A   23174.13719548  .00000174  00000-0  29018-4 0  9997,2 52656  53.2157 280.8831 0000941  92.9820 267.1280 15.08838759 61572,6917.884,95.438,540.4,539.098,0.0
52656.0,STARLINK-4004,PAYLOAD,2023-06-23 14:25:15,15.08848234,9.42e-05,53.2158,278.8016,88.9943,271.1157,0.00018605,2.675e-05,0.0,0 STARLINK-4004,1 52656U 22053A   23174.60087158  .00002675  00000-0  18605-3 0  9991,2 52656  53.2158 278.8016 0000942  88.9943 271.1157 15.08848234 61642,6917.855,95.437,540.372,539.069,0.0
52656.0,STARLINK-4004,PAYLOAD,2023-06-23 23:57:34,15.08843909,8.44e-05,53.2161,277.0172,85.2375,274.8713,6.5223e-05,7.51e-06,0.0,0 STARLINK-4004,1 52656U 22053A   23174.99831275  .00000751  00000-0  65223-4 0  9992,2 52656  53.2161 277.0172 0000844  85.2375 274.8713 15.08843909 61709,6917.868,95.437,540.317,539.15,0.0
52656.0,STARLINK-4004,PAYLOAD,2023-06-25 01:23:45,15.08834252,9.99e-05,53.2151,272.2579,82.0741,278.0365,6.0961e-07,-2.78e-06,0.0,0 STARLINK-4004,1 52656U 22053A   23176.05815987 -.00000278  00000-0  60961-6 0  9994,2 52656  53.2151 272.2579 0000999  82.0741 278.0365 15.08834252 61866,6917.898,95.438,540.454,539.072,0.0
52656.0,STARLINK-4004,PAYLOAD,2023-06-26 07:36:05,15.08834664,0.000106,53.215,266.6092,77.03,283.081,0.000145,2.02e-05,0.0,0 STARLINK-4004,1 52656U 22053A   23177.31672575  .00002020  00000-0  14500-3 0  9999,2 52656  53.2150 266.6092 0001060  77.0300 283.0810 15.08834664 62057,6917.897,95.438,540.495,539.028,0.0
52656.0,STARLINK-4004,PAYLOAD,2023-06-27 10:37:38,15.08833847,9.98e-05,53.2153,261.5532,82.1705,277.94,0.00054408,8.38e-05,0.0,0 STARLINK-4004,1 52656U 22053A   23178.44280915  .00008380  00000-0  54408-3 0  9993,2 52656  53.2153 261.5532 0000998  82.1705 277.9400 15.08833847 62226,6917.899,95.438,540.455,539.074,0.0
52656.0,STARLINK-4004,PAYLOAD,2023-06-27 12:13:00,15.08849656,0.0001042,53.2154,261.2555,78.0722,282.0387,0.00014733,2.058e-05,0.0,0 STARLINK-4004,1 52656U 22053A   23178.50903837  .00002058  00000-0  14733-3 0  9998,2 52656  53.2154 261.2555 0001042  78.0722 282.0387 15.08849656 62230,6917.851,95.437,540.437,538.995,0.0
52656.0,STARLINK-4004,PAYLOAD,2023-06-28 10:28:25,15.08839362,0.0001065,53.2155,257.0928,79.183,280.9282,6.584e-05,7.6e-06,0.0,0 STARLINK-4004,1 52656U 22053A   23179.43640246  .00000760  00000-0  65840-4 0  9997,2 52656  53.2155 257.0928 0001065  79.1830 280.9282 15.08839362 62374,6917.882,95.438,540.484,539.011,0.0
52656.0,STARLINK-4004,PAYLOAD,2023-06-29 00:46:53,15.08833692,9.04e-05,53.2167,254.4163,93.1408,266.9688,-9.477e-06,-4.38e-06,0.0,0 STARLINK-4004,1 52656U 22053A   23180.03256764 -.00000438  00000-0 -94770-5 0  9992,2 52656  53.2167 254.4163 0000904  93.1408 266.9688 15.08833692 62461,6917.9,95.438,540.39,539.139,0.0
52656.0,STARLINK-4004,PAYLOAD,2023-06-29 10:19:12,15.08841133,9.95e-05,53.2159,252.632,86.9011,273.2095,4.817e-05,4.79e-06,0.0,0 STARLINK-4004,1 52656U 22053A   23180.43000163  .00000479  00000-0  48170-4 0  9991,2 52656  53.2159 252.6320 0000995  86.9011 273.2095 15.08841133 62526,6917.877,95.437,540.43,539.054,0.0
